IRIDIUM 151             
1 43074U 17083E   26073.55179666 -.00000016  00000+0 -12754-4 0  9991
2 43074  86.4021   1.6070 0002027  85.1975 274.9452 14.34217319430578
IRIDIUM 134             
1 43075U 17083F   26073.52008285  .00000071  00000+0  18376-4 0  9992
2 43075  86.4028   1.6268 0002030  87.3609 272.7819 14.34218012430537
IRIDIUM 137             
1 43076U 17083G   26073.32346366 -.00000006  00000+0 -93256-5 0  9997
2 43076  86.4027   1.8000 0002371  91.7766 268.3702 14.34217530430574
IRIDIUM 141             
1 43077U 17083H   26073.52642562  .00000210  00000+0  68063-4 0  9999
2 43077  86.4024   1.5512 0002143  83.1240 277.0199 14.34218841430603
IRIDIUM 153             
1 43078U 17083J   26073.61813849  .00000202  00000+0  64927-4 0  9994
2 43078  86.4004 330.0258 0001976  77.9392 282.2025 14.34216842431720
IRIDIUM 131             
1 43079U 17083K   26073.51373966  .00000168  00000+0  53072-4 0  9995
2 43079  86.4030   1.7356 0002231  83.0846 277.0604 14.34218836430536
IRIDIUM 144             
1 43249U 18030A   26073.62448398  .00000060  00000+0  14498-4 0  9991
2 43249  86.4005 329.9544 0002048  87.8813 272.2617 14.34218068416580
IRIDIUM 149             
1 43250U 18030B   26073.42152167  .00000287  00000+0  95275-4 0  9990
2 43250  86.4001 330.0075 0002128  84.5057 275.6381 14.34217936416570
IRIDIUM 157             
1 43251U 18030C   26073.44054879  .00000104  00000+0  30240-4 0  9993
2 43251  86.4006 330.0505 0002099  83.9530 276.1905 14.34217936416556
IRIDIUM 140             
1 43252U 18030D   26073.45957643  .00000023  00000+0  13129-5 0  9994
2 43252  86.4000 330.0552 0002002  86.5077 273.6348 14.34217708416619
IRIDIUM 145             
1 43253U 18030E   26073.65619233  .00000266  00000+0  88101-4 0  9997
2 43253  86.4003 329.9454 0002085  95.0759 265.0675 14.34216754416577
IRIDIUM 146             
1 43254U 18030F   26073.42786324  .00000086  00000+0  23622-4 0  9996
2 43254  86.4004 330.0535 0002172  89.2197 270.9248 14.34218166416558
IRIDIUM 148             
1 43255U 18030G   26073.46591932 -.00000009  00000+0 -10271-4 0  9993
2 43255  86.3998 330.0789 0002019  85.8317 274.3110 14.34217468416591
IRIDIUM 142             
1 43256U 18030H   26073.43420647  .00000059  00000+0  14035-4 0  9990
2 43256  86.4002 329.9850 0002089  93.6484 266.4951 14.34217679416559
IRIDIUM 150             
1 43257U 18030J   26073.47226059  .00000249  00000+0  81886-4 0  9995
2 43257  86.4004 330.0823 0002051  85.9031 274.2399 14.34217563416584
IRIDIUM 143             
1 43258U 18030K   26073.66253983  .00000009  00000+0 -37873-5 0  9996
2 43258  86.4002 330.0913 0001976  91.2852 268.8570 14.34217525416543
IRIDIUM 161             
1 43478U 18047C   26073.60174564  .00000359  00000+0  10080-3 0  9995
2 43478  86.4492 128.0306 0002455  87.3193 272.8289 14.43277440411491
