[{"OBJECT_NAME":"IRIDIUM 151","OBJECT_ID":"2017-083E","EPOCH":"2026-03-14T13:14:35.231424","MEAN_MOTION":14.34217319,"ECCENTRICITY":0.00020274,"INCLINATION":86.4021,"RA_OF_ASC_NODE":1.607,"ARG_OF_PERICENTER":85.1975,"MEAN_ANOMALY":274.9452,"EPHEMERIS_TYPE":0,"CLASSIFICATION_TYPE":"U","NORAD_CAT_ID":43074,"ELEMENT_SET_NO":999,"REV_AT_EPOCH":43057,"BSTAR":-1.275427e-5,"MEAN_MOTION_DOT":-1.6e-7,"MEAN_MOTION_DDOT":0},{"OBJECT_NAME":"IRIDIUM 134","OBJECT_ID":"2017-083F","EPOCH":"2026-03-14T12:28:55.158240","MEAN_MOTION":14.34218012,"ECCENTRICITY":0.00020301,"INCLINATION":86.4028,"RA_OF_ASC_NODE":1.6268,"ARG_OF_PERICENTER":87.3609,"MEAN_ANOMALY":272.7819,"EPHEMERIS_TYPE":0,"CLASSIFICATION_TYPE":"U","NORAD_CAT_ID":43075,"ELEMENT_SET_NO":999,"REV_AT_EPOCH":43053,"BSTAR":1.8375899e-5,"MEAN_MOTION_DOT":7.1e-7,"MEAN_MOTION_DDOT":0},{"OBJECT_NAME":"IRIDIUM 137","OBJECT_ID":"2017-083G","EPOCH":"2026-03-14T07:45:47.260224","MEAN_MOTION":14.3421753,"ECCENTRICITY":0.00023711,"INCLINATION":86.4027,"RA_OF_ASC_NODE":1.8,"ARG_OF_PERICENTER":91.7766,"MEAN_ANOMALY":268.3702,"EPHEMERIS_TYPE":0,"CLASSIFICATION_TYPE":"U","NORAD_CAT_ID":43076,"ELEMENT_SET_NO":999,"REV_AT_EPOCH":43057,"BSTAR":-9.325606e-6,"MEAN_MOTION_DOT":-6.0e-8,"MEAN_MOTION_DDOT":0},{"OBJECT_NAME":"IRIDIUM 141","OBJECT_ID":"2017-083H","EPOCH":"2026-03-14T12:38:03.173568","MEAN_MOTION":14.34218841,"ECCENTRICITY":0.00021434,"INCLINATION":86.4024,"RA_OF_ASC_NODE":1.5512,"ARG_OF_PERICENTER":83.124,"MEAN_ANOMALY":277.0199,"EPHEMERIS_TYPE":0,"CLASSIFICATION_TYPE":"U","NORAD_CAT_ID":43077,"ELEMENT_SET_NO":999,"REV_AT_EPOCH":43060,"BSTAR":6.8062954e-5,"MEAN_MOTION_DOT":2.1e-6,"MEAN_MOTION_DDOT":0},{"OBJECT_NAME":"IRIDIUM 153","OBJECT_ID":"2017-083J","EPOCH":"2026-03-14T14:50:07.165536","MEAN_MOTION":14.34216842,"ECCENTRICITY":0.0001976,"INCLINATION":86.4004,"RA_OF_ASC_NODE":330.0258,"ARG_OF_PERICENTER":77.9392,"MEAN_ANOMALY":282.2025,"EPHEMERIS_TYPE":0,"CLASSIFICATION_TYPE":"U","NORAD_CAT_ID":43078,"ELEMENT_SET_NO":999,"REV_AT_EPOCH":43172,"BSTAR":6.4927474e-5,"MEAN_MOTION_DOT":2.02e-6,"MEAN_MOTION_DDOT":0},{"OBJECT_NAME":"IRIDIUM 131","OBJECT_ID":"2017-083K","EPOCH":"2026-03-14T12:19:47.106624","MEAN_MOTION":14.34218836,"ECCENTRICITY":0.0002231,"INCLINATION":86.403,"RA_OF_ASC_NODE":1.7356,"ARG_OF_PERICENTER":83.0846,"MEAN_ANOMALY":277.0604,"EPHEMERIS_TYPE":0,"CLASSIFICATION_TYPE":"U","NORAD_CAT_ID":43079,"ELEMENT_SET_NO":999,"REV_AT_EPOCH":43053,"BSTAR":5.3071503e-5,"MEAN_MOTION_DOT":1.68e-6,"MEAN_MOTION_DDOT":0},{"OBJECT_NAME":"IRIDIUM 144","OBJECT_ID":"2018-030A","EPOCH":"2026-03-14T14:59:15.415872","MEAN_MOTION":14.34218068,"ECCENTRICITY":0.00020484,"INCLINATION":86.4005,"RA_OF_ASC_NODE":329.9544,"ARG_OF_PERICENTER":87.8813,"MEAN_ANOMALY":272.2617,"EPHEMERIS_TYPE":0,"CLASSIFICATION_TYPE":"U","NORAD_CAT_ID":43249,"ELEMENT_SET_NO":999,"REV_AT_EPOCH":41658,"BSTAR":1.4497819e-5,"MEAN_MOTION_DOT":6.0e-7,"MEAN_MOTION_DDOT":0},{"OBJECT_NAME":"IRIDIUM 149","OBJECT_ID":"2018-030B","EPOCH":"2026-03-14T10:06:59.472288","MEAN_MOTION":14.34217936,"ECCENTRICITY":0.00021287,"INCLINATION":86.4001,"RA_OF_ASC_NODE":330.0075,"ARG_OF_PERICENTER":84.5057,"MEAN_ANOMALY":275.6381,"EPHEMERIS_TYPE":0,"CLASSIFICATION_TYPE":"U","NORAD_CAT_ID":43250,"ELEMENT_SET_NO":999,"REV_AT_EPOCH":41657,"BSTAR":9.5275217e-5,"MEAN_MOTION_DOT":2.87e-6,"MEAN_MOTION_DDOT":0},{"OBJECT_NAME":"IRIDIUM 157","OBJECT_ID":"2018-030C","EPOCH":"2026-03-14T10:34:23.415456","MEAN_MOTION":14.34217936,"ECCENTRICITY":0.00020997,"INCLINATION":86.4006,"RA_OF_ASC_NODE":330.0505,"ARG_OF_PERICENTER":83.953,"MEAN_ANOMALY":276.1905,"EPHEMERIS_TYPE":0,"CLASSIFICATION_TYPE":"U","NORAD_CAT_ID":43251,"ELEMENT_SET_NO":999,"REV_AT_EPOCH":41655,"BSTAR":3.0239558e-5,"MEAN_MOTION_DOT":1.04e-6,"MEAN_MOTION_DDOT":0},{"OBJECT_NAME":"IRIDIUM 140","OBJECT_ID":"2018-030D","EPOCH":"2026-03-14T11:01:47.403552","MEAN_MOTION":14.34217708,"ECCENTRICITY":0.00020027,"INCLINATION":86.4,"RA_OF_ASC_NODE":330.0552,"ARG_OF_PERICENTER":86.5077,"MEAN_ANOMALY":273.6348,"EPHEMERIS_TYPE":0,"CLASSIFICATION_TYPE":"U","NORAD_CAT_ID":43252,"ELEMENT_SET_NO":999,"REV_AT_EPOCH":41661,"BSTAR":1.312935e-6,"MEAN_MOTION_DOT":2.3e-7,"MEAN_MOTION_DDOT":0},{"OBJECT_NAME":"IRIDIUM 145","OBJECT_ID":"2018-030E","EPOCH":"2026-03-14T15:44:55.017312","MEAN_MOTION":14.34216754,"ECCENTRICITY":0.00020851,"INCLINATION":86.4003,"RA_OF_ASC_NODE":329.9454,"ARG_OF_PERICENTER":95.0759,"MEAN_ANOMALY":265.0675,"EPHEMERIS_TYPE":0,"CLASSIFICATION_TYPE":"U","NORAD_CAT_ID":43253,"ELEMENT_SET_NO":999,"REV_AT_EPOCH":41657,"BSTAR":8.810092e-5,"MEAN_MOTION_DOT":2.66e-6,"MEAN_MOTION_DDOT":0},{"OBJECT_NAME":"IRIDIUM 146","OBJECT_ID":"2018-030F","EPOCH":"2026-03-14T10:16:07.383936","MEAN_MOTION":14.34218166,"ECCENTRICITY":0.00021721,"INCLINATION":86.4004,"RA_OF_ASC_NODE":330.0535,"ARG_OF_PERICENTER":89.2197,"MEAN_ANOMALY":270.9248,"EPHEMERIS_TYPE":0,"CLASSIFICATION_TYPE":"U","NORAD_CAT_ID":43254,"ELEMENT_SET_NO":999,"REV_AT_EPOCH":41655,"BSTAR":2.3621812e-5,"MEAN_MOTION_DOT":8.6e-7,"MEAN_MOTION_DDOT":0},{"OBJECT_NAME":"IRIDIUM 148","OBJECT_ID":"2018-030G","EPOCH":"2026-03-14T11:10:55.429248","MEAN_MOTION":14.34217468,"ECCENTRICITY":0.00020191,"INCLINATION":86.3998,"RA_OF_ASC_NODE":330.0789,"ARG_OF_PERICENTER":85.8317,"MEAN_ANOMALY":274.311,"EPHEMERIS_TYPE":0,"CLASSIFICATION_TYPE":"U","NORAD_CAT_ID":43255,"ELEMENT_SET_NO":999,"REV_AT_EPOCH":41659,"BSTAR":-1.0270765e-5,"MEAN_MOTION_DOT":-9.0e-8,"MEAN_MOTION_DDOT":0},{"OBJECT_NAME":"IRIDIUM 142","OBJECT_ID":"2018-030H","EPOCH":"2026-03-14T10:25:15.439008","MEAN_MOTION":14.34217679,"ECCENTRICITY":0.00020899,"INCLINATION":86.4002,"RA_OF_ASC_NODE":329.985,"ARG_OF_PERICENTER":93.6484,"MEAN_ANOMALY":266.4951,"EPHEMERIS_TYPE":0,"CLASSIFICATION_TYPE":"U","NORAD_CAT_ID":43256,"ELEMENT_SET_NO":999,"REV_AT_EPOCH":41655,"BSTAR":1.4034996e-5,"MEAN_MOTION_DOT":5.9e-7,"MEAN_MOTION_DDOT":0},{"OBJECT_NAME":"IRIDIUM 150","OBJECT_ID":"2018-030J","EPOCH":"2026-03-14T11:20:03.314976","MEAN_MOTION":14.34217563,"ECCENTRICITY":0.00020515,"INCLINATION":86.4004,"RA_OF_ASC_NODE":330.0823,"ARG_OF_PERICENTER":85.9031,"MEAN_ANOMALY":274.2399,"EPHEMERIS_TYPE":0,"CLASSIFICATION_TYPE":"U","NORAD_CAT_ID":43257,"ELEMENT_SET_NO":999,"REV_AT_EPOCH":41658,"BSTAR":8.1886175e-5,"MEAN_MOTION_DOT":2.49e-6,"MEAN_MOTION_DDOT":0},{"OBJECT_NAME":"IRIDIUM 143","OBJECT_ID":"2018-030K","EPOCH":"2026-03-14T15:54:03.441312","MEAN_MOTION":14.34217525,"ECCENTRICITY":0.00019768,"INCLINATION":86.4002,"RA_OF_ASC_NODE":330.0913,"ARG_OF_PERICENTER":91.2852,"MEAN_ANOMALY":268.857,"EPHEMERIS_TYPE":0,"CLASSIFICATION_TYPE":"U","NORAD_CAT_ID":43258,"ELEMENT_SET_NO":999,"REV_AT_EPOCH":41654,"BSTAR":-3.787292e-6,"MEAN_MOTION_DOT":9.0e-8,"MEAN_MOTION_DDOT":0},{"OBJECT_NAME":"IRIDIUM 161","OBJECT_ID":"2018-047C","EPOCH":"2026-03-14T14:26:30.823296","MEAN_MOTION":14.4327744,"ECCENTRICITY":0.00024555,"INCLINATION":86.4492,"RA_OF_ASC_NODE":128.0306,"ARG_OF_PERICENTER":87.3193,"MEAN_ANOMALY":272.8289,"EPHEMERIS_TYPE":0,"CLASSIFICATION_TYPE":"U","NORAD_CAT_ID":43478,"ELEMENT_SET_NO":999,"REV_AT_EPOCH":41149,"BSTAR":0.00010080023,"MEAN_MOTION_DOT":3.59e-6,"MEAN_MOTION_DDOT":0}]
